ORBCOMM FM103 [+]       
1 40091U 14040F   24047.59713819  .00001585  00000+0  39191-3 0  9997
2 40091  47.0056 152.3864 0002594 223.3648 136.7033 14.56305512510196
ORBCOMM FM114 [+]       
1 41179U 15081A   24048.04308086  .00001440  00000+0  35938-3 0  9993
2 41179  47.0035  59.5983 0002641 278.7444  81.3142 14.56312174433611
ORBCOMM FM119 [-]       
1 41180U 15081B   24047.87467734  .00001402  00000+0  35093-3 0  9991
2 41180  47.0023 329.5823 0001805 327.2726  32.8047 14.56298499434795
ORBCOMM FM105 [-]       
1 41181U 15081C   24048.04693250  .00000572  00000+0  21038-3 0  9997
2 41181  47.0013 288.0973 0002282 298.3385  61.7264 14.44235188430565
ORBCOMM FM118 [+]       
1 41183U 15081E   24048.06603429  .00001647  00000+0  40567-3 0  9992
2 41183  47.0039  59.1931 0000747  91.0379 269.0591 14.56314776433621
ORBCOMM FM112 [+]       
1 41184U 15081F   24047.78406056  .00002148  00000+0  51756-3 0  9997
2 41184  46.9996 329.2459 0001769 314.3751  45.6988 14.56319957434724
ORBCOMM FM113 [+]       
1 41185U 15081G   24047.89827198  .00001875  00000+0  45676-3 0  9994
2 41185  47.0017 328.9590 0001358 326.4043  33.6756 14.56300251434722
